{
  "norad_id": 39768,
  "name": "SOCRATES",
  "history": [
    {
      "epoch": "2026-04-13T07:10:15.003264Z",
      "apogee_km": 587.9595515328956,
      "perigee_km": 579.5931417876809,
      "latitude_deg": -8.349683568229074e-06,
      "longitude_deg": -92.75887724054932,
      "height_km": 590.9962443020038,
      "semi_major_axis_km": 6961.913346660288,
      "eccentricity": 0.00060087,
      "inclination_deg": 97.8993,
      "raan_deg": 216.2952,
      "arg_perigee_deg": 183.0587,
      "mean_anomaly_deg": 177.0597,
      "mean_motion_rev_day": 14.94547911
    },
    {
      "epoch": "2026-04-14T20:07:40.381248Z",
      "apogee_km": 588.0595538446578,
      "perigee_km": 579.4741340243172,
      "latitude_deg": -4.296247788872846e-05,
      "longitude_deg": 72.91741552551387,
      "height_km": 591.098623835982,
      "semi_major_axis_km": 6961.903843934487,
      "eccentricity": 0.0006166,
      "inclination_deg": 97.8995,
      "raan_deg": 217.845,
      "arg_perigee_deg": 177.9277,
      "mean_anomaly_deg": 182.1969,
      "mean_motion_rev_day": 14.94550971
    },
    {
      "epoch": "2026-04-15T20:13:48.981792Z",
      "apogee_km": 588.1202728871931,
      "perigee_km": 579.3998006589309,
      "latitude_deg": 2.3366650263930073e-05,
      "longitude_deg": 71.40242275824795,
      "height_km": 591.1426413165347,
      "semi_major_axis_km": 6961.897036773062,
      "eccentricity": 0.0006263,
      "inclination_deg": 97.8996,
      "raan_deg": 218.8557,
      "arg_perigee_deg": 174.6553,
      "mean_anomaly_deg": 185.4735,
      "mean_motion_rev_day": 14.94553163
    },
    {
      "epoch": "2026-04-16T13:54:19.225152Z",
      "apogee_km": 588.1585336648714,
      "perigee_km": 579.3461741207138,
      "latitude_deg": -6.41309218954707e-05,
      "longitude_deg": 166.2917330097938,
      "height_km": 591.1584370186996,
      "semi_major_axis_km": 6961.889353892792,
      "eccentricity": 0.0006329,
      "inclination_deg": 97.8997,
      "raan_deg": 219.5969,
      "arg_perigee_deg": 172.1777,
      "mean_anomaly_deg": 187.9542,
      "mean_motion_rev_day": 14.94555637
    },
    {
      "epoch": "2026-04-17T05:58:24.837312Z",
      "apogee_km": 588.1884591553262,
      "perigee_km": 579.3032865200385,
      "latitude_deg": 4.3261327982172154e-05,
      "longitude_deg": -74.71776330405001,
      "height_km": 591.161854652066,
      "semi_major_axis_km": 6961.882872837682,
      "eccentricity": 0.00063813,
      "inclination_deg": 97.8998,
      "raan_deg": 220.2707,
      "arg_perigee_deg": 170.0292,
      "mean_anomaly_deg": 190.1056,
      "mean_motion_rev_day": 14.94557724
    },
    {
      "epoch": "2026-04-18T17:19:24.815136Z",
      "apogee_km": 588.2649392858293,
      "perigee_km": 579.1964104525459,
      "latitude_deg": 2.05943120943679e-05,
      "longitude_deg": 115.06306042672618,
      "height_km": 591.1538151187015,
      "semi_major_axis_km": 6961.867674869188,
      "eccentricity": 0.0006513,
      "inclination_deg": 97.9001,
      "raan_deg": 221.7532,
      "arg_perigee_deg": 165.1875,
      "mean_anomaly_deg": 194.9537,
      "mean_motion_rev_day": 14.94562618
    },
    {
      "epoch": "2026-04-19T17:25:32.696832Z",
      "apogee_km": 588.3057208327755,
      "perigee_km": 579.1341704925599,
      "latitude_deg": -1.4102707127776989e-05,
      "longitude_deg": 113.55128215530607,
      "height_km": 591.1184211487072,
      "semi_major_axis_km": 6961.856945662667,
      "eccentricity": 0.0006587,
      "inclination_deg": 97.9003,
      "raan_deg": 222.7641,
      "arg_perigee_deg": 161.9291,
      "mean_anomaly_deg": 198.2164,
      "mean_motion_rev_day": 14.94566073
    },
    {
      "epoch": "2026-04-20T06:16:48.892800Z",
      "apogee_km": 588.324303888634,
      "perigee_km": 579.1095940018095,
      "latitude_deg": 3.048118470832585e-05,
      "longitude_deg": -79.25502363129068,
      "height_km": 591.0930933697211,
      "semi_major_axis_km": 6961.853948945221,
      "eccentricity": 0.0006618,
      "inclination_deg": 97.9004,
      "raan_deg": 223.3032,
      "arg_perigee_deg": 160.2964,
      "mean_anomaly_deg": 199.8513,
      "mean_motion_rev_day": 14.94567038
    },
    {
      "epoch": "2026-04-21T19:14:12.268032Z",
      "apogee_km": 588.3721476590908,
      "perigee_km": 579.0265785252759,
      "latitude_deg": -1.812766082326861e-05,
      "longitude_deg": 86.42983330447541,
      "height_km": 590.9883544987351,
      "semi_major_axis_km": 6961.836363092183,
      "eccentricity": 0.0006712,
      "inclination_deg": 97.9008,
      "raan_deg": 224.8532,
      "arg_perigee_deg": 155.4827,
      "mean_anomaly_deg": 204.6713,
      "mean_motion_rev_day": 14.94572701
    },
    {
      "epoch": "2026-04-22T19:20:19.440384Z",
      "apogee_km": 588.399400096052,
      "perigee_km": 578.9758742671629,
      "latitude_deg": -4.124843535631945e-05,
      "longitude_deg": 84.9210155656432,
      "height_km": 590.8997810795711,
      "semi_major_axis_km": 6961.824637181608,
      "eccentricity": 0.0006768,
      "inclination_deg": 97.9009,
      "raan_deg": 225.8641,
      "arg_perigee_deg": 152.3925,
      "mean_anomaly_deg": 207.7655,
      "mean_motion_rev_day": 14.94576477
    },
    {
      "epoch": "2026-04-23T06:35:10.710528Z",
      "apogee_km": 588.4115485498442,
      "perigee_km": 578.9547512945919,
      "latitude_deg": 8.357233474029318e-06,
      "longitude_deg": -83.78273933369,
      "height_km": 590.8566443414054,
      "semi_major_axis_km": 6961.820149922218,
      "eccentricity": 0.00067919,
      "inclination_deg": 97.901,
      "raan_deg": 226.3359,
      "arg_perigee_deg": 151.0352,
      "mean_anomaly_deg": 209.1246,
      "mean_motion_rev_day": 14.94577922
    },
    {
      "epoch": "2026-04-24T19:32:33.061920Z",
      "apogee_km": 588.4566397249455,
      "perigee_km": 578.8716319211435,
      "latitude_deg": -8.840374900216165e-06,
      "longitude_deg": 81.90639265490209,
      "height_km": 590.7053145418814,
      "semi_major_axis_km": 6961.801135823044,
      "eccentricity": 0.0006884,
      "inclination_deg": 97.9012,
      "raan_deg": 227.8859,
      "arg_perigee_deg": 146.7005,
      "mean_anomaly_deg": 213.4649,
      "mean_motion_rev_day": 14.94584045
    },
    {
      "epoch": "2026-04-25T19:38:39.480000Z",
      "apogee_km": 588.4650710490869,
      "perigee_km": 578.8285698847967,
      "latitude_deg": 2.9138491787340182e-05,
      "longitude_deg": 80.40072015038496,
      "height_km": 590.5684035599455,
      "semi_major_axis_km": 6961.7838204669415,
      "eccentricity": 0.0006921,
      "inclination_deg": 97.9013,
      "raan_deg": 228.8968,
      "arg_perigee_deg": 143.771,
      "mean_anomaly_deg": 216.398,
      "mean_motion_rev_day": 14.94589621
    },
    {
      "epoch": "2026-04-26T21:21:10.164672Z",
      "apogee_km": 588.4855415274533,
      "perigee_km": 578.7863994249856,
      "latitude_deg": 2.0499001529853113e-05,
      "longitude_deg": 54.795457482111,
      "height_km": 590.4317098952023,
      "semi_major_axis_km": 6961.77297047622,
      "eccentricity": 0.0006966,
      "inclination_deg": 97.9014,
      "raan_deg": 229.9752,
      "arg_perigee_deg": 140.8629,
      "mean_anomaly_deg": 219.3096,
      "mean_motion_rev_day": 14.94593115
    },
    {
      "epoch": "2026-04-27T19:50:51.785664Z",
      "apogee_km": 588.474802416381,
      "perigee_km": 578.7715011168493,
      "latitude_deg": 3.370786904615863e-05,
      "longitude_deg": 77.3919031009247,
      "height_km": 590.3090160064871,
      "semi_major_axis_km": 6961.760151766615,
      "eccentricity": 0.0006969,
      "inclination_deg": 97.9009,
      "raan_deg": 230.9189,
      "arg_perigee_deg": 138.8285,
      "mean_anomaly_deg": 221.3462,
      "mean_motion_rev_day": 14.94597243
    },
    {
      "epoch": "2026-04-28T19:56:57.649056Z",
      "apogee_km": 588.4891314495617,
      "perigee_km": 578.7371118791343,
      "latitude_deg": 5.446787099272539e-05,
      "longitude_deg": 75.88875144679413,
      "height_km": 590.1713376169106,
      "semi_major_axis_km": 6961.750121664348,
      "eccentricity": 0.0007004,
      "inclination_deg": 97.9011,
      "raan_deg": 231.93,
      "arg_perigee_deg": 136.2961,
      "mean_anomaly_deg": 223.8815,
      "mean_motion_rev_day": 14.94600473
    }
  ]
}